STARLINK-31451          
1 59366U 24060U   26068.53869507  .00000600  00000+0  31326-4 0  9990
2 59366  43.0004 260.3726 0001177 278.2614  81.8104 15.27579905110042
OTTER                   
1 62623U 25009Q   26068.72300813  .00012198  00000+0  45151-3 0  9990
2 62623  97.4065 151.3812 0003573 310.7710  49.3219 15.27809545 63722
